GPS BIIF-4              
1 39166U 13023A   26090.90349851 -.00000034  00000+0  00000+0 0  9996
2 39166  54.5658 272.1198 0141962  50.3418 310.8851  2.00563989 94331
INSAT-3D                
1 39216U 13038B   26094.25600255 -.00000339  00000+0  00000+0 0  9996
2 39216   1.7354  83.4645 0001769 264.8872  65.8685  1.00272148 46332
GPS BIIF-5              
1 39533U 14008A   26093.39631494  .00000034  00000+0  00000+0 0  9990
2 39533  53.6404 152.3712 0083264 229.3793 129.9742  2.00555066 88184
LUCH 5V                 
1 39727U 14023A   26093.98774959 -.00000267  00000+0  00000+0 0  9990
2 39727   4.9517  70.4707 0002857 318.1693 253.9960  1.00270652 43615
GPS BIIF-6              
1 39741U 14026A   26093.67287833 -.00000090  00000+0  00000+0 0  9999
2 39741  56.5321 334.4200 0039385 326.0442  33.7540  2.00566590 87047
GPS BIIF-7              
1 40105U 14045A   26093.26368592  .00000005  00000+0  00000+0 0  9998
2 40105  55.3033  91.4479 0031397 119.8062 240.5199  2.00553542 84575
GSAT0201 (GALILEO 5)    
1 40128U 14050A   26089.18601832 -.00000039  00000+0  00000+0 0  9990
2 40128  48.9622 276.6689 1661895 176.3139 185.0752  1.85520008 76851
GSAT0202 (GALILEO 6)    
1 40129U 14050B   26091.59776485 -.00000055  00000+0  00000+0 0  9994
2 40129  48.9773 275.6550 1663302 177.1412 183.9310  1.85520784 79067
GPS BIIF-8              
1 40294U 14068A   26093.63804742 -.00000091  00000+0  00000+0 0  9991
2 40294  56.9398  33.8272 0064231  68.3531 292.3128  2.00571763 83715
GLONASS-K 2             
1 40315U 14075A   26084.30325579  .00000001  00000+0  00000+0 0  9993
2 40315  63.6158 193.2737 0021182 207.3153 152.5805  2.13101287 88064
GPS BIIF-9              
1 40534U 15013A   26094.26958304  .00000003  00000+0  00000+0 0  9995
2 40534  53.1793 207.2341 0108806  39.9345 320.8563  2.00555851 80344
GSAT0203 (GALILEO 7)    
1 40544U 15017A   26093.13014306 -.00000097  00000+0  00000+0 0  9994
2 40544  56.8113 343.6436 0004510 297.6250  62.3753  1.70476014 67923
GSAT0204 (GALILEO 8)    
1 40545U 15017B   26093.97240100 -.00000096  00000+0  00000+0 0  9999
2 40545  56.8167 343.6389 0003117 291.5044  68.5090  1.70475693 30986
GPS BIIF-10             
1 40730U 15033A   26093.43233353 -.00000031  00000+0  00000+0 0  9995
2 40730  54.0424 270.1663 0114935  29.5641 331.0520  2.00560127 78495
METEOSAT-11 (MSG-4)     
1 40732U 15034A   26094.17810648  .00000063  00000+0  00000+0 0  9992
2 40732   3.0159  71.4966 0001746 284.9354 269.4795  1.00275817  6472
GSAT0205 (GALILEO 9)    
1 40889U 15045A   26092.93447196 -.00000016  00000+0  00000+0 0  9992
2 40889  54.9709 223.7776 0004084 270.5301  89.3690  1.67410870 65700
GSAT0206 (GALILEO 10)   
1 40890U 15045B   26093.37447767 -.00000013  00000+0  00000+0 0  9994
2 40890  54.9697 223.6683 0002814  47.1384 312.8358  1.70473950 65765
